RESOURCESAT-2A          
1 41877U 16074A   26063.20087140 -.00000026  00000+0  81058-5 0  9999
2 41877  98.7618 137.5318 0002707  48.0879 312.0528 14.21597287479386
CARTOSAT-2D             
1 41948U 17008A   26063.17243914  .00005045  00000+0  24206-3 0  9990
2 41948  97.4245 124.3675 0004584 238.9767 121.1018 15.19315938501634
SENTINEL-2B             
1 42063U 17013A   26063.17252813  .00000136  00000+0  68577-4 0  9999
2 42063  98.5672 139.4465 0001088  94.7740 265.3567 14.30817447469624
CARTOSAT-2E             
1 42767U 17036C   26063.18943622  .00005702  00000+0  27368-3 0  9997
2 42767  97.4409 124.6514 0002925 318.9771  41.1244 15.19257081482209
FORMOSAT-5              
1 42920U 17049A   26063.15525182  .00000308  00000+0  89162-4 0  9994
2 42920  98.2320 140.7826 0011960  52.2982 307.9295 14.50817955451444
SENTINEL-5P             
1 42969U 17064A   26062.82486498  .00000094  00000+0  65645-4 0  9995
2 42969  98.7875   5.7297 0001108  80.6139 279.5162 14.19547410434619
SKYSAT-C11              
1 42987U 17068A   26063.17252293  .00037591  00000+0  62488-3 0  9995
2 42987  97.4189 207.9762 0000763  86.0319 274.1021 15.51981525466922
SKYSAT-C10              
1 42988U 17068B   26062.33327470  .00013622  00000+0  43642-3 0  9993
2 42988  97.4325 198.4163 0001159  90.6134 269.5240 15.32490656466133
SKYSAT-C9               
1 42989U 17068C   26062.79543134  .00020845  00000+0  54646-3 0  9992
2 42989  97.4252 198.8673 0009683 152.1934 207.9831 15.38655720466532
SKYSAT-C8               
1 42990U 17068D   26062.32629177  .00006617  00000+0  20005-3 0  9998
2 42990  97.4350 197.8254 0001258 113.2685 246.8690 15.34560506466064
SKYSAT-C7               
1 42991U 17068E   26062.83784105  .00017270  00000+0  51767-3 0  9994
2 42991  97.4356 199.3239 0007383 121.7201 238.4762 15.34530913466206
SKYSAT-C6               
1 42992U 17068F   26062.82601345  .00015348  00000+0  48994-3 0  9990
2 42992  97.4390 199.6136 0003553 126.2728 233.8842 15.32572793466177
CARTOSAT-2F             
1 43111U 18004A   26063.15553527  .00005304  00000+0  25524-3 0  9995
2 43111  97.4174 124.4146 0000572 255.9573 104.1598 15.19197204451384
GAOFEN-1 02             
1 43259U 18031A   26063.18592155  .00000702  00000+0  10831-3 0  9993
2 43259  98.0661 125.9458 0002782   4.6909 355.4326 14.76467803427205
GAOFEN-1 03             
1 43260U 18031B   26063.16406067  .00001258  00000+0  18819-3 0  9990
2 43260  98.0646 125.7929 0003960  65.1538 295.0083 14.76465689427197
GAOFEN-1 04             
1 43262U 18031D   26063.20752713  .00001329  00000+0  19840-3 0  9993
2 43262  98.0663 126.0151 0002071  89.3409 270.8038 14.76467278427193
SENTINEL-3B             
1 43437U 18039A   26063.13508229  .00000178  00000+0  91749-4 0  9998
2 43437  98.6239 132.1497 0000869 127.1945 232.9315 14.26742455409142
