[{"OBJECT_NAME":"RESOURCESAT-2A","OBJECT_ID":"2016-074A","EPOCH":"2026-03-04T04:49:15.288960","MEAN_MOTION":14.21597287,"ECCENTRICITY":0.0002707,"INCLINATION":98.7618,"RA_OF_ASC_NODE":137.5318,"ARG_OF_PERICENTER":48.0879,"MEAN_ANOMALY":312.0528,"EPHEMERIS_TYPE":0,"CLASSIFICATION_TYPE":"U","NORAD_CAT_ID":41877,"ELEMENT_SET_NO":999,"REV_AT_EPOCH":47938,"BSTAR":8.1058e-6,"MEAN_MOTION_DOT":-2.6e-7,"MEAN_MOTION_DDOT":0},{"OBJECT_NAME":"CARTOSAT-2D","OBJECT_ID":"2017-008A","EPOCH":"2026-03-04T04:08:18.741696","MEAN_MOTION":15.19315938,"ECCENTRICITY":0.0004584,"INCLINATION":97.4245,"RA_OF_ASC_NODE":124.3675,"ARG_OF_PERICENTER":238.9767,"MEAN_ANOMALY":121.1018,"EPHEMERIS_TYPE":0,"CLASSIFICATION_TYPE":"U","NORAD_CAT_ID":41948,"ELEMENT_SET_NO":999,"REV_AT_EPOCH":50163,"BSTAR":0.00024206,"MEAN_MOTION_DOT":5.045e-5,"MEAN_MOTION_DDOT":0},{"OBJECT_NAME":"SENTINEL-2B","OBJECT_ID":"2017-013A","EPOCH":"2026-03-04T04:08:26.430432","MEAN_MOTION":14.30817447,"ECCENTRICITY":0.0001088,"INCLINATION":98.5672,"RA_OF_ASC_NODE":139.4465,"ARG_OF_PERICENTER":94.774,"MEAN_ANOMALY":265.3567,"EPHEMERIS_TYPE":0,"CLASSIFICATION_TYPE":"U","NORAD_CAT_ID":42063,"ELEMENT_SET_NO":999,"REV_AT_EPOCH":46962,"BSTAR":6.8577e-5,"MEAN_MOTION_DOT":1.36e-6,"MEAN_MOTION_DDOT":0},{"OBJECT_NAME":"CARTOSAT-2E","OBJECT_ID":"2017-036C","EPOCH":"2026-03-04T04:32:47.289408","MEAN_MOTION":15.19257081,"ECCENTRICITY":0.0002925,"INCLINATION":97.4409,"RA_OF_ASC_NODE":124.6514,"ARG_OF_PERICENTER":318.9771,"MEAN_ANOMALY":41.1244,"EPHEMERIS_TYPE":0,"CLASSIFICATION_TYPE":"U","NORAD_CAT_ID":42767,"ELEMENT_SET_NO":999,"REV_AT_EPOCH":48220,"BSTAR":0.00027368,"MEAN_MOTION_DOT":5.702e-5,"MEAN_MOTION_DDOT":0},{"OBJECT_NAME":"FORMOSAT-5","OBJECT_ID":"2017-049A","EPOCH":"2026-03-04T03:43:33.757248","MEAN_MOTION":14.50817955,"ECCENTRICITY":0.001196,"INCLINATION":98.232,"RA_OF_ASC_NODE":140.7826,"ARG_OF_PERICENTER":52.2982,"MEAN_ANOMALY":307.9295,"EPHEMERIS_TYPE":0,"CLASSIFICATION_TYPE":"U","NORAD_CAT_ID":42920,"ELEMENT_SET_NO":999,"REV_AT_EPOCH":45144,"BSTAR":8.9162e-5,"MEAN_MOTION_DOT":3.08e-6,"MEAN_MOTION_DDOT":0},{"OBJECT_NAME":"SENTINEL-5P","OBJECT_ID":"2017-064A","EPOCH":"2026-03-03T19:47:48.334272","MEAN_MOTION":14.1954741,"ECCENTRICITY":0.00011085,"INCLINATION":98.7875,"RA_OF_ASC_NODE":5.7297,"ARG_OF_PERICENTER":80.6139,"MEAN_ANOMALY":279.5162,"EPHEMERIS_TYPE":0,"CLASSIFICATION_TYPE":"U","NORAD_CAT_ID":42969,"ELEMENT_SET_NO":999,"REV_AT_EPOCH":43461,"BSTAR":6.5644893e-5,"MEAN_MOTION_DOT":9.4e-7,"MEAN_MOTION_DDOT":0},{"OBJECT_NAME":"SKYSAT-C11","OBJECT_ID":"2017-068A","EPOCH":"2026-03-04T04:08:25.981152","MEAN_MOTION":15.51981525,"ECCENTRICITY":7.63e-5,"INCLINATION":97.4189,"RA_OF_ASC_NODE":207.9762,"ARG_OF_PERICENTER":86.0319,"MEAN_ANOMALY":274.1021,"EPHEMERIS_TYPE":0,"CLASSIFICATION_TYPE":"U","NORAD_CAT_ID":42987,"ELEMENT_SET_NO":999,"REV_AT_EPOCH":46692,"BSTAR":0.00062488,"MEAN_MOTION_DOT":0.00037591,"MEAN_MOTION_DDOT":0},{"OBJECT_NAME":"SKYSAT-C10","OBJECT_ID":"2017-068B","EPOCH":"2026-03-03T07:59:54.934080","MEAN_MOTION":15.32490656,"ECCENTRICITY":0.00011597,"INCLINATION":97.4325,"RA_OF_ASC_NODE":198.4163,"ARG_OF_PERICENTER":90.6134,"MEAN_ANOMALY":269.524,"EPHEMERIS_TYPE":0,"CLASSIFICATION_TYPE":"U","NORAD_CAT_ID":42988,"ELEMENT_SET_NO":999,"REV_AT_EPOCH":46613,"BSTAR":0.00043641716,"MEAN_MOTION_DOT":0.00013622,"MEAN_MOTION_DDOT":0},{"OBJECT_NAME":"SKYSAT-C9","OBJECT_ID":"2017-068C","EPOCH":"2026-03-03T19:05:25.267776","MEAN_MOTION":15.3865572,"ECCENTRICITY":0.0009683,"INCLINATION":97.4252,"RA_OF_ASC_NODE":198.8673,"ARG_OF_PERICENTER":152.1934,"MEAN_ANOMALY":207.9831,"EPHEMERIS_TYPE":0,"CLASSIFICATION_TYPE":"U","NORAD_CAT_ID":42989,"ELEMENT_SET_NO":999,"REV_AT_EPOCH":46653,"BSTAR":0.00054646,"MEAN_MOTION_DOT":0.00020845,"MEAN_MOTION_DDOT":0},{"OBJECT_NAME":"SKYSAT-C8","OBJECT_ID":"2017-068D","EPOCH":"2026-03-03T07:49:51.608928","MEAN_MOTION":15.34560506,"ECCENTRICITY":0.00012586,"INCLINATION":97.435,"RA_OF_ASC_NODE":197.8254,"ARG_OF_PERICENTER":113.2685,"MEAN_ANOMALY":246.869,"EPHEMERIS_TYPE":0,"CLASSIFICATION_TYPE":"U","NORAD_CAT_ID":42990,"ELEMENT_SET_NO":999,"REV_AT_EPOCH":46606,"BSTAR":0.00020005058,"MEAN_MOTION_DOT":6.617e-5,"MEAN_MOTION_DDOT":0},{"OBJECT_NAME":"SKYSAT-C7","OBJECT_ID":"2017-068E","EPOCH":"2026-03-03T20:06:29.466720","MEAN_MOTION":15.34530913,"ECCENTRICITY":0.0007383,"INCLINATION":97.4356,"RA_OF_ASC_NODE":199.3239,"ARG_OF_PERICENTER":121.7201,"MEAN_ANOMALY":238.4762,"EPHEMERIS_TYPE":0,"CLASSIFICATION_TYPE":"U","NORAD_CAT_ID":42991,"ELEMENT_SET_NO":999,"REV_AT_EPOCH":46620,"BSTAR":0.00051767,"MEAN_MOTION_DOT":0.0001727,"MEAN_MOTION_DDOT":0},{"OBJECT_NAME":"SKYSAT-C6","OBJECT_ID":"2017-068F","EPOCH":"2026-03-03T19:49:27.562080","MEAN_MOTION":15.32572793,"ECCENTRICITY":0.0003553,"INCLINATION":97.439,"RA_OF_ASC_NODE":199.6136,"ARG_OF_PERICENTER":126.2728,"MEAN_ANOMALY":233.8842,"EPHEMERIS_TYPE":0,"CLASSIFICATION_TYPE":"U","NORAD_CAT_ID":42992,"ELEMENT_SET_NO":999,"REV_AT_EPOCH":46617,"BSTAR":0.00048994,"MEAN_MOTION_DOT":0.00015348,"MEAN_MOTION_DDOT":0},{"OBJECT_NAME":"CARTOSAT-2F","OBJECT_ID":"2018-004A","EPOCH":"2026-03-04T03:43:58.247328","MEAN_MOTION":15.19197204,"ECCENTRICITY":5.72e-5,"INCLINATION":97.4174,"RA_OF_ASC_NODE":124.4146,"ARG_OF_PERICENTER":255.9573,"MEAN_ANOMALY":104.1598,"EPHEMERIS_TYPE":0,"CLASSIFICATION_TYPE":"U","NORAD_CAT_ID":43111,"ELEMENT_SET_NO":999,"REV_AT_EPOCH":45138,"BSTAR":0.00025524,"MEAN_MOTION_DOT":5.304e-5,"MEAN_MOTION_DDOT":0},{"OBJECT_NAME":"GAOFEN-1 02","OBJECT_ID":"2018-031A","EPOCH":"2026-03-04T04:27:43.621920","MEAN_MOTION":14.76467803,"ECCENTRICITY":0.0002782,"INCLINATION":98.0661,"RA_OF_ASC_NODE":125.9458,"ARG_OF_PERICENTER":4.6909,"MEAN_ANOMALY":355.4326,"EPHEMERIS_TYPE":0,"CLASSIFICATION_TYPE":"U","NORAD_CAT_ID":43259,"ELEMENT_SET_NO":999,"REV_AT_EPOCH":42720,"BSTAR":0.00010831,"MEAN_MOTION_DOT":7.02e-6,"MEAN_MOTION_DDOT":0},{"OBJECT_NAME":"GAOFEN-1 03","OBJECT_ID":"2018-031B","EPOCH":"2026-03-04T03:56:14.841888","MEAN_MOTION":14.76465689,"ECCENTRICITY":0.000396,"INCLINATION":98.0646,"RA_OF_ASC_NODE":125.7929,"ARG_OF_PERICENTER":65.1538,"MEAN_ANOMALY":295.0083,"EPHEMERIS_TYPE":0,"CLASSIFICATION_TYPE":"U","NORAD_CAT_ID":43260,"ELEMENT_SET_NO":999,"REV_AT_EPOCH":42719,"BSTAR":0.00018819,"MEAN_MOTION_DOT":1.258e-5,"MEAN_MOTION_DDOT":0},{"OBJECT_NAME":"GAOFEN-1 04","OBJECT_ID":"2018-031D","EPOCH":"2026-03-04T04:58:50.344032","MEAN_MOTION":14.76467278,"ECCENTRICITY":0.0002071,"INCLINATION":98.0663,"RA_OF_ASC_NODE":126.0151,"ARG_OF_PERICENTER":89.3409,"MEAN_ANOMALY":270.8038,"EPHEMERIS_TYPE":0,"CLASSIFICATION_TYPE":"U","NORAD_CAT_ID":43262,"ELEMENT_SET_NO":999,"REV_AT_EPOCH":42719,"BSTAR":0.0001984,"MEAN_MOTION_DOT":1.329e-5,"MEAN_MOTION_DDOT":0},{"OBJECT_NAME":"SENTINEL-3B","OBJECT_ID":"2018-039A","EPOCH":"2026-03-04T03:14:31.109856","MEAN_MOTION":14.26742455,"ECCENTRICITY":8.69e-5,"INCLINATION":98.6239,"RA_OF_ASC_NODE":132.1497,"ARG_OF_PERICENTER":127.1945,"MEAN_ANOMALY":232.9315,"EPHEMERIS_TYPE":0,"CLASSIFICATION_TYPE":"U","NORAD_CAT_ID":43437,"ELEMENT_SET_NO":999,"REV_AT_EPOCH":40914,"BSTAR":9.1749e-5,"MEAN_MOTION_DOT":1.78e-6,"MEAN_MOTION_DDOT":0}]
